STARLINK-36792          
1 67804U 26032H   26059.47407144 -.00423603  00000+0 -25746-2 0  9996
2 67804  97.2834 245.5198 0003123  67.5936 292.5661 15.78505146  3331
STARLINK-36782          
1 67805U 26032J   26059.47258333  .00205806  00000+0  10468-2 0  9997
2 67805  97.2841 245.5221 0001248  62.8840 297.2555 15.80884238  3334
STARLINK-36389          
1 67806U 26032K   26059.47141495  .00140365  00000+0  72031-3 0  9991
2 67806  97.2839 245.5233 0001742  90.0041 270.1427 15.80861281  3331
STARLINK-36382          
1 67807U 26032L   26059.47044758  .00205414  00000+0  10450-2 0  9999
2 67807  97.2830 245.5239 0001400  73.1878 286.9543 15.80880730  3334
STARLINK-36811          
1 67808U 26032M   26059.46927407  .00134127  00000+0  68944-3 0  9994
2 67808  97.2838 245.5263 0000812  51.5668 308.5673 15.80842383  3330
STARLINK-36795          
1 67809U 26032N   26059.46835774  .00400112  00000+0  20553-2 0  9993
2 67809  97.2833 245.5277 0003364 195.7241 164.3923 15.80161278  3337
STARLINK-36807          
1 67810U 26032P   26059.46720995  .00496922  00000+0  24283-2 0  9991
2 67810  97.2829 245.5289 0001137 116.2310 243.9075 15.81011433  3338
STARLINK-36733          
1 67811U 26032Q   26059.46597207  .00094157  00000+0  48649-3 0  9997
2 67811  97.2828 245.5300 0001719  77.1840 282.9620 15.80839025  3334
STARLINK-36377          
1 67812U 26032R   26059.46279277  .00258990  00000+0  13087-2 0  9996
2 67812  97.2826 245.5347 0001083  89.2248 270.9145 15.80890115  3330
STARLINK-36732          
1 67813U 26032S   26059.46376468  .00435263  00000+0  21430-2 0  9998
2 67813  97.2821 245.5321 0001484 134.0059 226.1332 15.81006358  3332
STARLINK-36767          
1 67814U 26032T   26059.46500529  .00272904  00000+0  14438-2 0  9997
2 67814  97.2821 245.5303 0004827 179.2079 180.9197 15.79831854  3330
STARLINK-36797          
1 67815U 26032U   26059.46157125  .00534291  00000+0  25953-2 0  9992
2 67815  97.2820 245.5358 0001348 127.9152 232.2238 15.81047607  3332
