CCSDS_OMM_VERS = 2.0
CREATION_DATE  = 
ORIGINATOR     = 

OBJECT_NAME    = STARLINK-36792
OBJECT_ID      = 2026-032H
CENTER_NAME    = EARTH
REF_FRAME      = TEME
TIME_SYSTEM    = UTC
MEAN_ELEMENT_THEORY = SGP/SGP4

EPOCH          = 2026-02-28T11:22:39.772416
MEAN_MOTION    = 15.78505146
ECCENTRICITY   = .0003123
INCLINATION    = 97.2834
RA_OF_ASC_NODE = 245.5198
ARG_OF_PERICENTER = 67.5936
MEAN_ANOMALY   = 292.5661

EPHEMERIS_TYPE = 0
CLASSIFICATION_TYPE = U
NORAD_CAT_ID   = 67804
ELEMENT_SET_NO = 999
REV_AT_EPOCH   = 333
BSTAR          = -.25746E-2
MEAN_MOTION_DOT = -.423603E-2
MEAN_MOTION_DDOT = 0

CCSDS_OMM_VERS = 2.0
CREATION_DATE  = 
ORIGINATOR     = 

OBJECT_NAME    = STARLINK-36782
OBJECT_ID      = 2026-032J
CENTER_NAME    = EARTH
REF_FRAME      = TEME
TIME_SYSTEM    = UTC
MEAN_ELEMENT_THEORY = SGP/SGP4

EPOCH          = 2026-02-28T11:20:31.199712
MEAN_MOTION    = 15.80884238
ECCENTRICITY   = .0001248
INCLINATION    = 97.2841
RA_OF_ASC_NODE = 245.5221
ARG_OF_PERICENTER = 62.8840
MEAN_ANOMALY   = 297.2555

EPHEMERIS_TYPE = 0
CLASSIFICATION_TYPE = U
NORAD_CAT_ID   = 67805
ELEMENT_SET_NO = 999
REV_AT_EPOCH   = 333
BSTAR          = .10468E-2
MEAN_MOTION_DOT = .205806E-2
MEAN_MOTION_DDOT = 0

CCSDS_OMM_VERS = 2.0
CREATION_DATE  = 
ORIGINATOR     = 

OBJECT_NAME    = STARLINK-36389
OBJECT_ID      = 2026-032K
CENTER_NAME    = EARTH
REF_FRAME      = TEME
TIME_SYSTEM    = UTC
MEAN_ELEMENT_THEORY = SGP/SGP4

EPOCH          = 2026-02-28T11:18:50.251680
MEAN_MOTION    = 15.80861281
ECCENTRICITY   = .0001742
INCLINATION    = 97.2839
RA_OF_ASC_NODE = 245.5233
ARG_OF_PERICENTER = 90.0041
MEAN_ANOMALY   = 270.1427

EPHEMERIS_TYPE = 0
CLASSIFICATION_TYPE = U
NORAD_CAT_ID   = 67806
ELEMENT_SET_NO = 999
REV_AT_EPOCH   = 333
BSTAR          = .72031E-3
MEAN_MOTION_DOT = .140365E-2
MEAN_MOTION_DDOT = 0

CCSDS_OMM_VERS = 2.0
CREATION_DATE  = 
ORIGINATOR     = 

OBJECT_NAME    = STARLINK-36382
OBJECT_ID      = 2026-032L
CENTER_NAME    = EARTH
REF_FRAME      = TEME
TIME_SYSTEM    = UTC
MEAN_ELEMENT_THEORY = SGP/SGP4

EPOCH          = 2026-02-28T11:17:26.670912
MEAN_MOTION    = 15.80880730
ECCENTRICITY   = .00014
INCLINATION    = 97.2830
RA_OF_ASC_NODE = 245.5239
ARG_OF_PERICENTER = 73.1878
MEAN_ANOMALY   = 286.9543

EPHEMERIS_TYPE = 0
CLASSIFICATION_TYPE = U
NORAD_CAT_ID   = 67807
ELEMENT_SET_NO = 999
REV_AT_EPOCH   = 333
BSTAR          = .1045E-2
MEAN_MOTION_DOT = .205414E-2
MEAN_MOTION_DDOT = 0

CCSDS_OMM_VERS = 2.0
CREATION_DATE  = 
ORIGINATOR     = 

OBJECT_NAME    = STARLINK-36811
OBJECT_ID      = 2026-032M
CENTER_NAME    = EARTH
REF_FRAME      = TEME
TIME_SYSTEM    = UTC
MEAN_ELEMENT_THEORY = SGP/SGP4

EPOCH          = 2026-02-28T11:15:45.279648
MEAN_MOTION    = 15.80842383
ECCENTRICITY   = .0000812
INCLINATION    = 97.2838
RA_OF_ASC_NODE = 245.5263
ARG_OF_PERICENTER = 51.5668
MEAN_ANOMALY   = 308.5673

EPHEMERIS_TYPE = 0
CLASSIFICATION_TYPE = U
NORAD_CAT_ID   = 67808
ELEMENT_SET_NO = 999
REV_AT_EPOCH   = 333
BSTAR          = .68944E-3
MEAN_MOTION_DOT = .134127E-2
MEAN_MOTION_DDOT = 0

CCSDS_OMM_VERS = 2.0
CREATION_DATE  = 
ORIGINATOR     = 

OBJECT_NAME    = STARLINK-36795
OBJECT_ID      = 2026-032N
CENTER_NAME    = EARTH
REF_FRAME      = TEME
TIME_SYSTEM    = UTC
MEAN_ELEMENT_THEORY = SGP/SGP4

EPOCH          = 2026-02-28T11:14:26.108736
MEAN_MOTION    = 15.80161278
ECCENTRICITY   = .0003364
INCLINATION    = 97.2833
RA_OF_ASC_NODE = 245.5277
ARG_OF_PERICENTER = 195.7241
MEAN_ANOMALY   = 164.3923

EPHEMERIS_TYPE = 0
CLASSIFICATION_TYPE = U
NORAD_CAT_ID   = 67809
ELEMENT_SET_NO = 999
REV_AT_EPOCH   = 333
BSTAR          = .20553E-2
MEAN_MOTION_DOT = .400112E-2
MEAN_MOTION_DDOT = 0

CCSDS_OMM_VERS = 2.0
CREATION_DATE  = 
ORIGINATOR     = 

OBJECT_NAME    = STARLINK-36807
OBJECT_ID      = 2026-032P
CENTER_NAME    = EARTH
REF_FRAME      = TEME
TIME_SYSTEM    = UTC
MEAN_ELEMENT_THEORY = SGP/SGP4

EPOCH          = 2026-02-28T11:12:46.939680
MEAN_MOTION    = 15.81011433
ECCENTRICITY   = .0001137
INCLINATION    = 97.2829
RA_OF_ASC_NODE = 245.5289
ARG_OF_PERICENTER = 116.2310
MEAN_ANOMALY   = 243.9075

EPHEMERIS_TYPE = 0
CLASSIFICATION_TYPE = U
NORAD_CAT_ID   = 67810
ELEMENT_SET_NO = 999
REV_AT_EPOCH   = 333
BSTAR          = .24283E-2
MEAN_MOTION_DOT = .496922E-2
MEAN_MOTION_DDOT = 0

CCSDS_OMM_VERS = 2.0
CREATION_DATE  = 
ORIGINATOR     = 

OBJECT_NAME    = STARLINK-36733
OBJECT_ID      = 2026-032Q
CENTER_NAME    = EARTH
REF_FRAME      = TEME
TIME_SYSTEM    = UTC
MEAN_ELEMENT_THEORY = SGP/SGP4

EPOCH          = 2026-02-28T11:10:59.986848
MEAN_MOTION    = 15.80839025
ECCENTRICITY   = .0001719
INCLINATION    = 97.2828
RA_OF_ASC_NODE = 245.5300
ARG_OF_PERICENTER = 77.1840
MEAN_ANOMALY   = 282.9620

EPHEMERIS_TYPE = 0
CLASSIFICATION_TYPE = U
NORAD_CAT_ID   = 67811
ELEMENT_SET_NO = 999
REV_AT_EPOCH   = 333
BSTAR          = .48649E-3
MEAN_MOTION_DOT = .94157E-3
MEAN_MOTION_DDOT = 0

CCSDS_OMM_VERS = 2.0
CREATION_DATE  = 
ORIGINATOR     = 

OBJECT_NAME    = STARLINK-36377
OBJECT_ID      = 2026-032R
CENTER_NAME    = EARTH
REF_FRAME      = TEME
TIME_SYSTEM    = UTC
MEAN_ELEMENT_THEORY = SGP/SGP4

EPOCH          = 2026-02-28T11:06:25.295328
MEAN_MOTION    = 15.80890115
ECCENTRICITY   = .0001083
INCLINATION    = 97.2826
RA_OF_ASC_NODE = 245.5347
ARG_OF_PERICENTER = 89.2248
MEAN_ANOMALY   = 270.9145

EPHEMERIS_TYPE = 0
CLASSIFICATION_TYPE = U
NORAD_CAT_ID   = 67812
ELEMENT_SET_NO = 999
REV_AT_EPOCH   = 333
BSTAR          = .13087E-2
MEAN_MOTION_DOT = .25899E-2
MEAN_MOTION_DDOT = 0

CCSDS_OMM_VERS = 2.0
CREATION_DATE  = 
ORIGINATOR     = 

OBJECT_NAME    = STARLINK-36732
OBJECT_ID      = 2026-032S
CENTER_NAME    = EARTH
REF_FRAME      = TEME
TIME_SYSTEM    = UTC
MEAN_ELEMENT_THEORY = SGP/SGP4

EPOCH          = 2026-02-28T11:07:49.268352
MEAN_MOTION    = 15.81006358
ECCENTRICITY   = .0001484
INCLINATION    = 97.2821
RA_OF_ASC_NODE = 245.5321
ARG_OF_PERICENTER = 134.0059
MEAN_ANOMALY   = 226.1332

EPHEMERIS_TYPE = 0
CLASSIFICATION_TYPE = U
NORAD_CAT_ID   = 67813
ELEMENT_SET_NO = 999
REV_AT_EPOCH   = 333
BSTAR          = .2143E-2
MEAN_MOTION_DOT = .435263E-2
MEAN_MOTION_DDOT = 0

CCSDS_OMM_VERS = 2.0
CREATION_DATE  = 
ORIGINATOR     = 

OBJECT_NAME    = STARLINK-36767
OBJECT_ID      = 2026-032T
CENTER_NAME    = EARTH
REF_FRAME      = TEME
TIME_SYSTEM    = UTC
MEAN_ELEMENT_THEORY = SGP/SGP4

EPOCH          = 2026-02-28T11:09:36.457056
MEAN_MOTION    = 15.79831854
ECCENTRICITY   = .0004827
INCLINATION    = 97.2821
RA_OF_ASC_NODE = 245.5303
ARG_OF_PERICENTER = 179.2079
MEAN_ANOMALY   = 180.9197

EPHEMERIS_TYPE = 0
CLASSIFICATION_TYPE = U
NORAD_CAT_ID   = 67814
ELEMENT_SET_NO = 999
REV_AT_EPOCH   = 333
BSTAR          = .14438E-2
MEAN_MOTION_DOT = .272904E-2
MEAN_MOTION_DDOT = 0

CCSDS_OMM_VERS = 2.0
CREATION_DATE  = 
ORIGINATOR     = 

OBJECT_NAME    = STARLINK-36797
OBJECT_ID      = 2026-032U
CENTER_NAME    = EARTH
REF_FRAME      = TEME
TIME_SYSTEM    = UTC
MEAN_ELEMENT_THEORY = SGP/SGP4

EPOCH          = 2026-02-28T11:04:39.756000
MEAN_MOTION    = 15.81047607
ECCENTRICITY   = .0001348
INCLINATION    = 97.2820
RA_OF_ASC_NODE = 245.5358
ARG_OF_PERICENTER = 127.9152
MEAN_ANOMALY   = 232.2238

EPHEMERIS_TYPE = 0
CLASSIFICATION_TYPE = U
NORAD_CAT_ID   = 67815
ELEMENT_SET_NO = 999
REV_AT_EPOCH   = 333
BSTAR          = .25953E-2
MEAN_MOTION_DOT = .534291E-2
MEAN_MOTION_DDOT = 0

